{
  "norad_id": 66148,
  "name": "STARLINK-35081",
  "history": [
    {
      "epoch": "2026-04-15T16:10:41.491776Z",
      "apogee_km": 476.141936746988,
      "perigee_km": 474.281937845406,
      "latitude_deg": -3.5453940054610585e-05,
      "longitude_deg": 164.31762066422388,
      "height_km": 475.78688852188606,
      "semi_major_axis_km": 6853.348937296197,
      "eccentricity": 0.0001357,
      "inclination_deg": 53.1587,
      "raan_deg": 250.8233,
      "arg_perigee_deg": 69.6775,
      "mean_anomaly_deg": 290.4371,
      "mean_motion_rev_day": 15.30201049
    },
    {
      "epoch": "2026-04-16T14:07:26.228064Z",
      "apogee_km": 476.05936063001536,
      "perigee_km": 474.3597306866923,
      "latitude_deg": -6.294568339215198e-05,
      "longitude_deg": -170.02127959411246,
      "height_km": 475.86414145847976,
      "semi_major_axis_km": 6853.3465456583535,
      "eccentricity": 0.000124,
      "inclination_deg": 53.1592,
      "raan_deg": 246.5721,
      "arg_perigee_deg": 73.3481,
      "mean_anomaly_deg": 286.7655,
      "mean_motion_rev_day": 15.3020185
    },
    {
      "epoch": "2026-04-17T15:12:17.314272Z",
      "apogee_km": 475.99449640515286,
      "perigee_km": 474.4146641040725,
      "latitude_deg": 4.392887561413723e-05,
      "longitude_deg": 167.8823081365535,
      "height_km": 475.92735982868066,
      "semi_major_axis_km": 6853.341580254612,
      "eccentricity": 0.00011526,
      "inclination_deg": 53.1601,
      "raan_deg": 241.7185,
      "arg_perigee_deg": 77.1629,
      "mean_anomaly_deg": 282.9501,
      "mean_motion_rev_day": 15.30203513
    },
    {
      "epoch": "2026-04-18T14:43:04.954656Z",
      "apogee_km": 476.9059830406559,
      "perigee_km": 473.4025805374049,
      "latitude_deg": 4.630681048041093e-05,
      "longitude_deg": 169.66725454190592,
      "height_km": 476.2683969024776,
      "semi_major_axis_km": 6853.29128178903,
      "eccentricity": 0.0002556,
      "inclination_deg": 53.1609,
      "raan_deg": 237.1676,
      "arg_perigee_deg": 97.1422,
      "mean_anomaly_deg": 262.987,
      "mean_motion_rev_day": 15.30220359
    },
    {
      "epoch": "2026-04-19T14:13:52.911264Z",
      "apogee_km": 475.9425551254344,
      "perigee_km": 474.4759390285599,
      "latitude_deg": -5.824306767411885e-05,
      "longitude_deg": 171.45159891048232,
      "height_km": 476.2280437126063,
      "semi_major_axis_km": 6853.346247076996,
      "eccentricity": 0.000107,
      "inclination_deg": 53.1614,
      "raan_deg": 232.6175,
      "arg_perigee_deg": 99.44,
      "mean_anomaly_deg": 260.6721,
      "mean_motion_rev_day": 15.3020195
    },
    {
      "epoch": "2026-04-20T01:12:15.637536Z",
      "apogee_km": 476.0250762929427,
      "perigee_km": 474.44112539523485,
      "latitude_deg": 3.4096613039202166e-05,
      "longitude_deg": 4.282330025233035,
      "height_km": 476.20676502433815,
      "semi_major_axis_km": 6853.3701008440885,
      "eccentricity": 0.00011556,
      "inclination_deg": 53.1613,
      "raan_deg": 230.4935,
      "arg_perigee_deg": 95.4555,
      "mean_anomaly_deg": 264.6578,
      "mean_motion_rev_day": 15.30193961
    },
    {
      "epoch": "2026-04-21T13:15:28.777824Z",
      "apogee_km": 475.53394563375787,
      "perigee_km": 474.8321656600601,
      "latitude_deg": -6.669810194128267e-06,
      "longitude_deg": 175.01907411153684,
      "height_km": 476.28992397593004,
      "semi_major_axis_km": 6853.320055646909,
      "eccentricity": 5.12e-05,
      "inclination_deg": 53.1605,
      "raan_deg": 223.5157,
      "arg_perigee_deg": 126.2761,
      "mean_anomaly_deg": 233.8287,
      "mean_motion_rev_day": 15.30210722
    },
    {
      "epoch": "2026-04-22T12:46:17.116320Z",
      "apogee_km": 475.99766120689674,
      "perigee_km": 474.409056911667,
      "latitude_deg": -3.556560777746054e-05,
      "longitude_deg": 176.80197756931574,
      "height_km": 476.07364916305465,
      "semi_major_axis_km": 6853.340359059282,
      "eccentricity": 0.0001159,
      "inclination_deg": 53.1598,
      "raan_deg": 218.9657,
      "arg_perigee_deg": 87.9854,
      "mean_anomaly_deg": 272.1279,
      "mean_motion_rev_day": 15.30203922
    },
    {
      "epoch": "2026-04-23T13:51:08.143776Z",
      "apogee_km": 476.2841020251053,
      "perigee_km": 474.085556382297,
      "latitude_deg": 2.861016794963891e-05,
      "longitude_deg": 154.7060752830568,
      "height_km": 475.89006335078267,
      "semi_major_axis_km": 6853.321829203701,
      "eccentricity": 0.0001604,
      "inclination_deg": 53.1604,
      "raan_deg": 214.1124,
      "arg_perigee_deg": 79.9169,
      "mean_anomaly_deg": 280.2013,
      "mean_motion_rev_day": 15.30210128
    },
    {
      "epoch": "2026-04-24T13:21:56.136672Z",
      "apogee_km": 476.0591812762559,
      "perigee_km": 474.41163054987373,
      "latitude_deg": 4.6544323408319446e-05,
      "longitude_deg": 156.48955878796997,
      "height_km": 476.14569406730834,
      "semi_major_axis_km": 6853.3724059130645,
      "eccentricity": 0.0001202,
      "inclination_deg": 53.1583,
      "raan_deg": 209.5615,
      "arg_perigee_deg": 90.8564,
      "mean_anomaly_deg": 269.2575,
      "mean_motion_rev_day": 15.30193189
    },
    {
      "epoch": "2026-04-25T12:52:43.752000Z",
      "apogee_km": 475.88632724520085,
      "perigee_km": 474.5677400051309,
      "latitude_deg": -3.246099315477602e-05,
      "longitude_deg": 158.27494839207867,
      "height_km": 475.9610535215925,
      "semi_major_axis_km": 6853.364033625166,
      "eccentricity": 9.62e-05,
      "inclination_deg": 53.1573,
      "raan_deg": 205.011,
      "arg_perigee_deg": 75.576,
      "mean_anomaly_deg": 284.5347,
      "mean_motion_rev_day": 15.30195993
    },
    {
      "epoch": "2026-04-26T12:23:32.026560Z",
      "apogee_km": 476.2135013873958,
      "perigee_km": 474.2301393447806,
      "latitude_deg": 3.968861252010178e-05,
      "longitude_deg": 160.05839699212277,
      "height_km": 476.12257531133645,
      "semi_major_axis_km": 6853.3588203660875,
      "eccentricity": 0.0001447,
      "inclination_deg": 53.158,
      "raan_deg": 200.4612,
      "arg_perigee_deg": 90.1818,
      "mean_anomaly_deg": 269.9349,
      "mean_motion_rev_day": 15.30197739
    },
    {
      "epoch": "2026-04-27T11:54:20.079072Z",
      "apogee_km": 476.0645922579806,
      "perigee_km": 474.4252633008555,
      "latitude_deg": -1.2812055037619192e-05,
      "longitude_deg": 161.8424808649045,
      "height_km": 476.01949634302014,
      "semi_major_axis_km": 6853.381927779417,
      "eccentricity": 0.0001196,
      "inclination_deg": 53.1592,
      "raan_deg": 195.9112,
      "arg_perigee_deg": 81.3313,
      "mean_anomaly_deg": 278.7823,
      "mean_motion_rev_day": 15.3019
    },
    {
      "epoch": "2026-04-28T14:33:14.658624Z",
      "apogee_km": 476.14139937762593,
      "perigee_km": 474.3389611792136,
      "latitude_deg": -1.3801353991645503e-05,
      "longitude_deg": 115.86115139840464,
      "height_km": 476.02484516322625,
      "semi_major_axis_km": 6853.3771802784195,
      "eccentricity": 0.0001315,
      "inclination_deg": 53.1594,
      "raan_deg": 190.7517,
      "arg_perigee_deg": 82.7778,
      "mean_anomaly_deg": 277.3372,
      "mean_motion_rev_day": 15.3019159
    },
    {
      "epoch": "2026-04-29T10:55:56.031168Z",
      "apogee_km": 476.1904260040874,
      "perigee_km": 474.195558709911,
      "latitude_deg": -1.55459904474784e-05,
      "longitude_deg": 165.40726363999974,
      "height_km": 476.0319964493058,
      "semi_major_axis_km": 6853.329992356998,
      "eccentricity": 0.00014554,
      "inclination_deg": 53.1599,
      "raan_deg": 186.8071,
      "arg_perigee_deg": 86.6196,
      "mean_anomaly_deg": 273.4971,
      "mean_motion_rev_day": 15.30207394
    },
    {
      "epoch": "2026-04-30T13:34:50.270304Z",
      "apogee_km": 476.02835113354104,
      "perigee_km": 474.34147447792384,
      "latitude_deg": 1.426060609707538e-06,
      "longitude_deg": 119.43096886880205,
      "height_km": 475.99650601876937,
      "semi_major_axis_km": 6853.321912805733,
      "eccentricity": 0.00012307,
      "inclination_deg": 53.1597,
      "raan_deg": 181.6512,
      "arg_perigee_deg": 84.1124,
      "mean_anomaly_deg": 276.0017,
      "mean_motion_rev_day": 15.302101
    },
    {
      "epoch": "2026-05-02T09:28:19.753248Z",
      "apogee_km": 475.8960024141943,
      "perigee_km": 474.5691900603633,
      "latitude_deg": -3.094814432236836e-05,
      "longitude_deg": 170.75963592103832,
      "height_km": 476.2916767305187,
      "semi_major_axis_km": 6853.3695962372785,
      "eccentricity": 9.68e-05,
      "inclination_deg": 53.1599,
      "raan_deg": 173.1553,
      "arg_perigee_deg": 104.007,
      "mean_anomaly_deg": 256.1038,
      "mean_motion_rev_day": 15.3019413
    },
    {
      "epoch": "2026-05-03T19:57:30.176064Z",
      "apogee_km": 476.13144018648654,
      "perigee_km": 474.2577393298461,
      "latitude_deg": -5.53861801411486e-05,
      "longitude_deg": 5.375486376558219,
      "height_km": 476.0096597212846,
      "semi_major_axis_km": 6853.331589758166,
      "eccentricity": 0.0001367,
      "inclination_deg": 53.156,
      "raan_deg": 166.4809,
      "arg_perigee_deg": 84.9503,
      "mean_anomaly_deg": 275.1653,
      "mean_motion_rev_day": 15.30206859
    },
    {
      "epoch": "2026-05-04T11:38:02.297184Z",
      "apogee_km": 476.00994138750866,
      "perigee_km": 474.48026650190786,
      "latitude_deg": 4.900744560185829e-05,
      "longitude_deg": 126.56565035242242,
      "height_km": 475.9750290608123,
      "semi_major_axis_km": 6853.3821039447075,
      "eccentricity": 0.0001116,
      "inclination_deg": 53.157,
      "raan_deg": 163.4486,
      "arg_perigee_deg": 77.3062,
      "mean_anomaly_deg": 282.8064,
      "mean_motion_rev_day": 15.30189941
    }
  ]
}